0 COSMOS 1261 DEB
1 27796U 81031H   13286.02419939  .00000395  00000-0  00000+0 0  4172
2 27796 067.5081 033.5199 5936109 096.1926 330.3290 02.01731078 92444
0 COSMOS 1261 DEB
1 27796U 81031H   13286.07751133  .00000398  00000-0  00000+0 0  4186
2 27796 067.5191 033.5248 5936238 096.1918 009.0466 02.01730569 92444
0 COSMOS 1261 DEB
1 27796U 81031H   13294.47640074  .00000764  00000-0  00000+0 0  4198
2 27796 067.5276 032.9650 5937295 095.9953 348.7014 02.01736700 92612
